CCSDS_OMM_VERS = 2.0
CREATION_DATE  = 
ORIGINATOR     = 

OBJECT_NAME    = SOYUZ-MS 28
OBJECT_ID      = 2025-275A
CENTER_NAME    = EARTH
REF_FRAME      = TEME
TIME_SYSTEM    = UTC
MEAN_ELEMENT_THEORY = SGP/SGP4

EPOCH          = 2026-01-07T20:31:08.770368
MEAN_MOTION    = 15.49160932
ECCENTRICITY   = .00076245
INCLINATION    = 51.6332
RA_OF_ASC_NODE = 13.1773
ARG_OF_PERICENTER = 352.7234
MEAN_ANOMALY   = 7.3643

EPHEMERIS_TYPE = 0
CLASSIFICATION_TYPE = U
NORAD_CAT_ID   = 66664
ELEMENT_SET_NO = 999
REV_AT_EPOCH   = 128
BSTAR          = .15591257E-3
MEAN_MOTION_DOT = .8201E-4
MEAN_MOTION_DDOT = 0

CCSDS_OMM_VERS = 2.0
CREATION_DATE  = 
ORIGINATOR     = 

OBJECT_NAME    = 1998-067XS
OBJECT_ID      = 1998-067XS
CENTER_NAME    = EARTH
REF_FRAME      = TEME
TIME_SYSTEM    = UTC
MEAN_ELEMENT_THEORY = SGP/SGP4

EPOCH          = 2026-01-07T07:17:28.164480
MEAN_MOTION    = 15.52093903
ECCENTRICITY   = .0002381
INCLINATION    = 51.6319
RA_OF_ASC_NODE = 15.4987
ARG_OF_PERICENTER = 337.5853
MEAN_ANOMALY   = 22.5032

EPHEMERIS_TYPE = 0
CLASSIFICATION_TYPE = U
NORAD_CAT_ID   = 66906
ELEMENT_SET_NO = 999
REV_AT_EPOCH   = 558
BSTAR          = .39031E-3
MEAN_MOTION_DOT = .23607E-3
MEAN_MOTION_DDOT = 0

CCSDS_OMM_VERS = 2.0
CREATION_DATE  = 
ORIGINATOR     = 

OBJECT_NAME    = 1998-067XT
OBJECT_ID      = 1998-067XT
CENTER_NAME    = EARTH
REF_FRAME      = TEME
TIME_SYSTEM    = UTC
MEAN_ELEMENT_THEORY = SGP/SGP4

EPOCH          = 2026-01-07T04:56:15.477216
MEAN_MOTION    = 15.55283383
ECCENTRICITY   = .0003845
INCLINATION    = 51.6319
RA_OF_ASC_NODE = 15.5942
ARG_OF_PERICENTER = 22.2958
MEAN_ANOMALY   = 337.8199

EPHEMERIS_TYPE = 0
CLASSIFICATION_TYPE = U
NORAD_CAT_ID   = 66907
ELEMENT_SET_NO = 999
REV_AT_EPOCH   = 557
BSTAR          = .95275E-3
MEAN_MOTION_DOT = .65869E-3
MEAN_MOTION_DDOT = 0

CCSDS_OMM_VERS = 2.0
CREATION_DATE  = 
ORIGINATOR     = 

OBJECT_NAME    = 1998-067XU
OBJECT_ID      = 1998-067XU
CENTER_NAME    = EARTH
REF_FRAME      = TEME
TIME_SYSTEM    = UTC
MEAN_ELEMENT_THEORY = SGP/SGP4

EPOCH          = 2026-01-07T04:54:45.278208
MEAN_MOTION    = 15.55280476
ECCENTRICITY   = .0003807
INCLINATION    = 51.6309
RA_OF_ASC_NODE = 15.5857
ARG_OF_PERICENTER = 17.5939
MEAN_ANOMALY   = 342.5184

EPHEMERIS_TYPE = 0
CLASSIFICATION_TYPE = U
NORAD_CAT_ID   = 66908
ELEMENT_SET_NO = 999
REV_AT_EPOCH   = 557
BSTAR          = .97528E-3
MEAN_MOTION_DOT = .67445E-3
MEAN_MOTION_DDOT = 0

CCSDS_OMM_VERS = 2.0
CREATION_DATE  = 
ORIGINATOR     = 

OBJECT_NAME    = SILVERSAT
OBJECT_ID      = 1998-067XV
CENTER_NAME    = EARTH
REF_FRAME      = TEME
TIME_SYSTEM    = UTC
MEAN_ELEMENT_THEORY = SGP/SGP4

EPOCH          = 2026-01-07T17:07:00.653664
MEAN_MOTION    = 15.55919243
ECCENTRICITY   = .00039961
INCLINATION    = 51.6309
RA_OF_ASC_NODE = 12.9825
ARG_OF_PERICENTER = 29.5999
MEAN_ANOMALY   = 330.5218

EPHEMERIS_TYPE = 0
CLASSIFICATION_TYPE = U
NORAD_CAT_ID   = 66909
ELEMENT_SET_NO = 999
REV_AT_EPOCH   = 565
BSTAR          = .10454847E-2
MEAN_MOTION_DOT = .74132E-3
MEAN_MOTION_DDOT = 0

CCSDS_OMM_VERS = 2.0
CREATION_DATE  = 
ORIGINATOR     = 

OBJECT_NAME    = 1998-067XW
OBJECT_ID      = 1998-067XW
CENTER_NAME    = EARTH
REF_FRAME      = TEME
TIME_SYSTEM    = UTC
MEAN_ELEMENT_THEORY = SGP/SGP4

EPOCH          = 2026-01-07T17:06:59.551200
MEAN_MOTION    = 15.55634618
ECCENTRICITY   = .00029704
INCLINATION    = 51.6300
RA_OF_ASC_NODE = 12.9813
ARG_OF_PERICENTER = 2.7764
MEAN_ANOMALY   = 357.3243

EPHEMERIS_TYPE = 0
CLASSIFICATION_TYPE = U
NORAD_CAT_ID   = 66910
ELEMENT_SET_NO = 999
REV_AT_EPOCH   = 565
BSTAR          = .97479135E-3
MEAN_MOTION_DOT = .68301E-3
MEAN_MOTION_DDOT = 0

CCSDS_OMM_VERS = 2.0
CREATION_DATE  = 
ORIGINATOR     = 

OBJECT_NAME    = 1998-067XX
OBJECT_ID      = 1998-067XX
CENTER_NAME    = EARTH
REF_FRAME      = TEME
TIME_SYSTEM    = UTC
MEAN_ELEMENT_THEORY = SGP/SGP4

EPOCH          = 2026-01-07T16:52:00.840864
MEAN_MOTION    = 15.56587022
ECCENTRICITY   = .00029446
INCLINATION    = 51.6309
RA_OF_ASC_NODE = 12.9118
ARG_OF_PERICENTER = 18.9734
MEAN_ANOMALY   = 341.1367

EPHEMERIS_TYPE = 0
CLASSIFICATION_TYPE = U
NORAD_CAT_ID   = 66911
ELEMENT_SET_NO = 999
REV_AT_EPOCH   = 564
BSTAR          = .10688694E-2
MEAN_MOTION_DOT = .77736E-3
MEAN_MOTION_DDOT = 0

CCSDS_OMM_VERS = 2.0
CREATION_DATE  = 
ORIGINATOR     = 

OBJECT_NAME    = 1998-067XY
OBJECT_ID      = 1998-067XY
CENTER_NAME    = EARTH
REF_FRAME      = TEME
TIME_SYSTEM    = UTC
MEAN_ELEMENT_THEORY = SGP/SGP4

EPOCH          = 2026-01-07T23:45:03.522240
MEAN_MOTION    = 15.54197306
ECCENTRICITY   = .00037217
INCLINATION    = 51.6314
RA_OF_ASC_NODE = 11.8282
ARG_OF_PERICENTER = 11.3070
MEAN_ANOMALY   = 348.8004

EPHEMERIS_TYPE = 0
CLASSIFICATION_TYPE = U
NORAD_CAT_ID   = 66912
ELEMENT_SET_NO = 999
REV_AT_EPOCH   = 568
BSTAR          = .76884192E-3
MEAN_MOTION_DOT = .5088E-3
MEAN_MOTION_DDOT = 0

