SOYUZ-MS 28             
1 66664U 25275A   26007.85496262  .00008201  00000+0  15591-3 0  9990
2 66664  51.6332  13.1773 0007624 352.7234   7.3643 15.49160932  1281
1998-067XS              
1 66906U 98067XS  26007.30379820  .00023607  00000+0  39031-3 0  9990
2 66906  51.6319  15.4987 0002381 337.5853  22.5032 15.52093903  5585
1998-067XT              
1 66907U 98067XT  26007.20573469  .00065869  00000+0  95275-3 0  9993
2 66907  51.6319  15.5942 0003845  22.2958 337.8199 15.55283383  5579
1998-067XU              
1 66908U 98067XU  26007.20469072  .00067445  00000+0  97528-3 0  9993
2 66908  51.6309  15.5857 0003807  17.5939 342.5184 15.55280476  5575
SILVERSAT               
1 66909U 98067XV  26007.71320201  .00074132  00000+0  10455-2 0  9994
2 66909  51.6309  12.9825 0003996  29.5999 330.5218 15.55919243  5655
1998-067XW              
1 66910U 98067XW  26007.71318925  .00068301  00000+0  97479-3 0  9999
2 66910  51.6300  12.9813 0002970   2.7764 357.3243 15.55634618  5654
1998-067XX              
1 66911U 98067XX  26007.70278751  .00077736  00000+0  10689-2 0  9990
2 66911  51.6309  12.9118 0002944  18.9734 341.1367 15.56587022  5643
1998-067XY              
1 66912U 98067XY  26007.98962410  .00050880  00000+0  76884-3 0  9994
2 66912  51.6314  11.8282 0003721  11.3070 348.8004 15.54197306  5680
